<?xml version="1.0" encoding="UTF-8"?>
<kml xmlns="http://www.opengis.net/kml/2.2" xmlns:gx="http://www.google.com/kml/ext/2.2" xmlns:kml="http://www.opengis.net/kml/2.2" xmlns:atom="http://www.w3.org/2005/Atom">
<Document>
	<name>runways.kml</name>
	<open>1</open>
	<StyleMap id="msn_ylw-pushpin2610">
		<Pair>
			<key>normal</key>
			<styleUrl>#sn_ylw-pushpin50</styleUrl>
		</Pair>
		<Pair>
			<key>highlight</key>
			<styleUrl>#sh_ylw-pushpin211</styleUrl>
		</Pair>
	</StyleMap>
	<Style id="sh_ylw-pushpin211">
		<IconStyle>
			<scale>1.3</scale>
			<Icon>
				<href>http://maps.google.com/mapfiles/kml/pushpin/ylw-pushpin.png</href>
			</Icon>
			<hotSpot x="20" y="2" xunits="pixels" yunits="pixels"/>
		</IconStyle>
		<LineStyle>
			<color>ff000000</color>
			<width>0</width>
		</LineStyle>
		<PolyStyle>
			<color>7d0880fd</color>
		</PolyStyle>
	</Style>
	<Style id="sn_ylw-pushpin50">
		<IconStyle>
			<scale>1.1</scale>
			<Icon>
				<href>http://maps.google.com/mapfiles/kml/pushpin/ylw-pushpin.png</href>
			</Icon>
			<hotSpot x="20" y="2" xunits="pixels" yunits="pixels"/>
		</IconStyle>
		<LineStyle>
			<color>ff000000</color>
			<width>0</width>
		</LineStyle>
		<PolyStyle>
			<color>7d0880fd</color>
		</PolyStyle>
	</Style>
	<Folder>
		<name>runways</name>
		<open>1</open>
		<Placemark>
			<name>23L ground: 0-4500 0-360</name>
			<styleUrl>#msn_ylw-pushpin2610</styleUrl>
			<Polygon>
				<tessellate>1</tessellate>
				<outerBoundaryIs>
					<LinearRing>
						<coordinates>
							-119.2096094408434,40.75923763667937,0 -119.2089483132106,40.75816481922853,0 -119.1879845850835,40.76563851120684,0 -119.1885981632703,40.76681868657906,0 -119.2096094408434,40.75923763667937,0 
						</coordinates>
					</LinearRing>
				</outerBoundaryIs>
			</Polygon>
		</Placemark>
		<Placemark>
			<name>23R ground: 0-4500 0-360</name>
			<styleUrl>#msn_ylw-pushpin2610</styleUrl>
			<Polygon>
				<tessellate>1</tessellate>
				<outerBoundaryIs>
					<LinearRing>
						<coordinates>
							-119.2369287609989,40.75236579375161,0 -119.2361430673743,40.75113941565979,0 -119.2155862170918,40.75824326777888,0 -119.2161754349199,40.75991578943921,0 -119.2369287609989,40.75236579375161,0 
						</coordinates>
					</LinearRing>
				</outerBoundaryIs>
			</Polygon>
		</Placemark>
	</Folder>
</Document>
</kml>
